[{"OBJECT_NAME":"SHIYAN-1 (SY-1)","OBJECT_ID":"2004-012A","EPOCH":"2026-03-09T17:40:34.066560","MEAN_MOTION":15.31043463,"ECCENTRICITY":0.00058726,"INCLINATION":97.8764,"RA_OF_ASC_NODE":140.5238,"ARG_OF_PERICENTER":23.6952,"MEAN_ANOMALY":336.4557,"EPHEMERIS_TYPE":0,"CLASSIFICATION_TYPE":"U","NORAD_CAT_ID":28220,"ELEMENT_SET_NO":999,"REV_AT_EPOCH":19586,"BSTAR":0.00054854449,"MEAN_MOTION_DOT":0.00016393,"MEAN_MOTION_DDOT":0},{"OBJECT_NAME":"STARLINK-36138","OBJECT_ID":"2025-294A","EPOCH":"2026-03-09T06:27:19.872000","MEAN_MOTION":15.27539097,"ECCENTRICITY":0.00017311,"INCLINATION":43.0005,"RA_OF_ASC_NODE":40.5564,"ARG_OF_PERICENTER":260.191,"MEAN_ANOMALY":99.8746,"EPHEMERIS_TYPE":0,"CLASSIFICATION_TYPE":"U","NORAD_CAT_ID":67030,"ELEMENT_SET_NO":999,"REV_AT_EPOCH":1473,"BSTAR":0.00090056987,"MEAN_MOTION_DOT":0.00024572,"MEAN_MOTION_DDOT":0}]
