SHIYAN-1 (SY-1)         
1 28220U 04012A   26068.73650539  .00016393  00000+0  54854-3 0  9991
2 28220  97.8764 140.5238 0005873  23.6952 336.4557 15.31043463195862
STARLINK-36138          
1 67030U 25294A   26068.26898000  .00024572  00000+0  90057-3 0  9996
2 67030  43.0005  40.5564 0001731 260.1910  99.8746 15.27539097 14731
